{
  "norad_id": 64179,
  "name": "STARLINK-34194",
  "history": [
    {
      "epoch": "2026-03-28T18:44:03.232608Z",
      "apogee_km": 475.91381319611173,
      "perigee_km": 474.2098338406313,
      "latitude_deg": -8.7405056529038e-06,
      "longitude_deg": -105.15039913157095,
      "height_km": 475.9317493598893,
      "semi_major_axis_km": 6853.198823518371,
      "eccentricity": 0.00012432,
      "inclination_deg": 53.1593,
      "raan_deg": 2.0592,
      "arg_perigee_deg": 88.1077,
      "mean_anomaly_deg": 272.0066,
      "mean_motion_rev_day": 15.30251326
    },
    {
      "epoch": "2026-03-29T01:00:16.327296Z",
      "apogee_km": 476.00999021246844,
      "perigee_km": 474.5611766783286,
      "latitude_deg": -2.8750762330895002e-05,
      "longitude_deg": 159.32141245752626,
      "height_km": 476.0127922986755,
      "semi_major_axis_km": 6853.422583445398,
      "eccentricity": 0.0001057,
      "inclination_deg": 53.1599,
      "raan_deg": 0.8431,
      "arg_perigee_deg": 76.3313,
      "mean_anomaly_deg": 283.7805,
      "mean_motion_rev_day": 15.30176384
    },
    {
      "epoch": "2026-03-30T00:31:04.135296Z",
      "apogee_km": 476.00163349940885,
      "perigee_km": 474.521299430653,
      "latitude_deg": 4.523154002524092e-05,
      "longitude_deg": 161.10801199255667,
      "height_km": 475.95195933998673,
      "semi_major_axis_km": 6853.398466465031,
      "eccentricity": 0.000108,
      "inclination_deg": 53.1602,
      "raan_deg": 356.2945,
      "arg_perigee_deg": 73.6862,
      "mean_anomaly_deg": 286.4258,
      "mean_motion_rev_day": 15.30184461
    }
  ]
}